idElset,classificationMarking,satNo,epoch,meanMotion,idOnOrbit,uct,eccentricity,inclination,raan,argOfPerigee,meanAnomaly,bStar,meanMotionDot,meanMotionDDot,semiMajorAxis,period,apogee,perigee,origObjectId,line1,line2,createdAt,createdBy,source,dataMode,ephemType,origNetwork,elset
833b8748-616e-43c6-b829-f40a6222ba5f,U//PR-EXO-ELSETS,14193,2025-08-09T20:32:38.682932Z,1.0160144944577,14193,False,0.001805933871883005,5.878062718758792,286.6794380792689,285.023283468703,27.75576673637624,0.0,0.0,0.0,41796.05192387044,1417.302615125194,41871.53282975074,41720.57101799014,14193,1 14193U 80060F   25221.85600327 +.00000000 +00000+0 +00000+0 2 99994,2 14193   5.8781 286.6794 0018059 285.0233  27.7558  1.01601449000007,2025-08-09T21:15:30.537Z,system.exo,EXO,REAL,2,OPS1,"{'NORAD_ID': 14193, 'classification': 'U', 'COSPAR_ID': '80060F', 'BC': 0.0, 'n_ddot': 0.0, 'B_star': 0.0, 'ephemeris_type': 2, 'elset_num': 9999, 'inclination': 5.8781, 'RAAN': 286.6794, 'eccentricity': 0.0018059, 'perigee': 285.0233, 'mean_anomaly': 27.7558, 'mean_motion': 1.01601449, 'rev_num': 0, 'line1': '1 14193U 80060F   25221.85600327 +.00000000 +00000+0 +00000+0 2 99994', 'line2': '2 14193   5.8781 286.6794 0018059 285.0233  27.7558  1.01601449000007', 'epoch': datetime.datetime(2025, 8, 9, 20, 32, 38, 682528)}"
63c52a60-f96b-49fb-9248-4a9bf66e8c9f,U//PR-EXO-ELSETS,21111,2025-08-09T20:28:13.957914Z,1.002799605426665,21111,False,0.0007946019051089359,13.45295397174654,344.9393128374429,187.3397168562301,166.0751697626714,0.0,0.0,0.0,42162.44226757021,1435.979823094682,42195.94462452006,42128.93991062035,21111,1 21111U 91010A   25221.85293933 +.00000000 +00000+0 +00000+0 2 99990,2 21111  13.4530 344.9393 0007946 187.3397 166.0752  1.00279960000004,2025-08-09T22:09:30.386Z,system.exo,EXO,REAL,2,OPS1,"{'NORAD_ID': 21111, 'classification': 'U', 'COSPAR_ID': '91010A', 'BC': 0.0, 'n_ddot': 0.0, 'B_star': 0.0, 'ephemeris_type': 2, 'elset_num': 9999, 'inclination': 13.453, 'RAAN': 344.9393, 'eccentricity': 0.0007946, 'perigee': 187.3397, 'mean_anomaly': 166.0752, 'mean_motion': 1.0027996, 'rev_num': 0, 'line1': '1 21111U 91010A   25221.85293933 +.00000000 +00000+0 +00000+0 2 99990', 'line2': '2 21111  13.4530 344.9393 0007946 187.3397 166.0752  1.00279960000004', 'epoch': datetime.datetime(2025, 8, 9, 20, 28, 13, 958112)}"
44234208-0185-40af-84d2-d015b30ac6f7,U//PR-EXO-ELSETS,14158,2025-08-08T23:49:59.611987Z,1.00096965495864,14158,False,0.0002891826956808548,13.82331658011624,343.9646212439286,210.8901979173842,193.8722840339744,0.0,0.0,0.0,42213.81358254929,1438.605049480246,42226.02108695605,42201.60607814251,14158,1 14158U 83065A   25220.99305106 +.00000000 +00000+0 +00000+0 2 99994,2 14158  13.8233 343.9646 0002891 210.8902 193.8723  1.00096965000007,2025-08-09T00:27:31.747Z,system.exo,EXO,REAL,2,OPS1,"{'NORAD_ID': 14158, 'classification': 'U', 'COSPAR_ID': '83065A', 'BC': 0.0, 'n_ddot': 0.0, 'B_star': 0.0, 'ephemeris_type': 2, 'elset_num': 9999, 'inclination': 13.8233, 'RAAN': 343.9646, 'eccentricity': 0.0002891, 'perigee': 210.8902, 'mean_anomaly': 193.8723, 'mean_motion': 1.00096965, 'rev_num': 0, 'line1': '1 14158U 83065A   25220.99305106 +.00000000 +00000+0 +00000+0 2 99994', 'line2': '2 14158  13.8233 343.9646 0002891 210.8902 193.8723  1.00096965000007', 'epoch': datetime.datetime(2025, 8, 8, 23, 49, 59, 611584)}"
537b88fd-a338-47c3-a2ee-14bf56923391,U//PR-EXO-ELSETS,21703,2025-08-09T20:28:46.593746Z,0.9987765191414139,21703,False,5.075122606226085e-05,13.57532866376972,342.166619562019,74.76778185977038,280.3023749823556,0.0,0.0,0.0,42275.58701302897,1441.763970620653,42277.73255090239,42273.44147515556,21703,1 21703U 91064B   25221.85331706 +.00000000 +00000+0 +00000+0 2 99997,2 21703  13.5753 342.1666 0000507  74.7678 280.3024  0.99877651000009,2025-08-09T22:33:30.677Z,system.exo,EXO,REAL,2,OPS1,"{'NORAD_ID': 21703, 'classification': 'U', 'COSPAR_ID': '91064B', 'BC': 0.0, 'n_ddot': 0.0, 'B_star': 0.0, 'ephemeris_type': 2, 'elset_num': 9999, 'inclination': 13.5753, 'RAAN': 342.1666, 'eccentricity': 5.07e-05, 'perigee': 74.7678, 'mean_anomaly': 280.3024, 'mean_motion': 0.99877651, 'rev_num': 0, 'line1': '1 21703U 91064B   25221.85331706 +.00000000 +00000+0 +00000+0 2 99997', 'line2': '2 21703  13.5753 342.1666 0000507  74.7678 280.3024  0.99877651000009', 'epoch': datetime.datetime(2025, 8, 9, 20, 28, 46, 593984)}"
69b137d7-30a7-40d3-ac3a-f481f1b2213a,U//PR-EXO-ELSETS,25967,2025-08-08T19:44:14.402246Z,1.002691615924669,25967,False,0.0003350743160011771,9.722936092527796,28.7808503984879,153.4832826301121,48.46389151868571,0.0,0.0,0.0,42165.4694657949,1436.134477570205,42179.59803163502,42151.34089995478,25967,1 25967U 99063A   25220.82238891 +.00000000 +00000+0 +00000+0 2 99997,2 25967   9.7229  28.7809 0003350 153.4833  48.4639  1.00269161000002,2025-08-08T20:00:30.006Z,system.exo,EXO,REAL,2,OPS1,"{'NORAD_ID': 25967, 'classification': 'U', 'COSPAR_ID': '99063A', 'BC': 0.0, 'n_ddot': 0.0, 'B_star': 0.0, 'ephemeris_type': 2, 'elset_num': 9999, 'inclination': 9.7229, 'RAAN': 28.7809, 'eccentricity': 0.000335, 'perigee': 153.4833, 'mean_anomaly': 48.4639, 'mean_motion': 1.00269161, 'rev_num': 0, 'line1': '1 25967U 99063A   25220.82238891 +.00000000 +00000+0 +00000+0 2 99997', 'line2': '2 25967   9.7229  28.7809 0003350 153.4833  48.4639  1.00269161000002', 'epoch': datetime.datetime(2025, 8, 8, 19, 44, 14, 401824)}"
02f19b55-a8cc-4763-ac69-cb4be37b1558,U//PR-EXO-ELSETS,37150,2025-08-09T20:29:04.181742Z,0.997004689608402,37150,False,9.317859107130892e-05,3.416111215212219,81.19496103872372,85.2692154714985,68.56301552142114,0.0,0.0,0.0,42325.65897061129,1444.326205291567,42329.60281588035,42321.71512534225,37150,1 37150U 10042A   25221.85352062 +.00000000 +00000+0 +00000+0 2 99995,2 37150   3.4161  81.1950 0000931  85.2692  68.5630  0.99700468000003,2025-08-09T21:15:30.550Z,system.exo,EXO,REAL,2,OPS1,"{'NORAD_ID': 37150, 'classification': 'U', 'COSPAR_ID': '10042A', 'BC': 0.0, 'n_ddot': 0.0, 'B_star': 0.0, 'ephemeris_type': 2, 'elset_num': 9999, 'inclination': 3.4161, 'RAAN': 81.195, 'eccentricity': 9.31e-05, 'perigee': 85.2692, 'mean_anomaly': 68.563, 'mean_motion': 0.99700468, 'rev_num': 0, 'line1': '1 37150U 10042A   25221.85352062 +.00000000 +00000+0 +00000+0 2 99995', 'line2': '2 37150   3.4161  81.1950 0000931  85.2692  68.5630  0.99700468000003', 'epoch': datetime.datetime(2025, 8, 9, 20, 29, 4, 181568)}"
25b85552-f2eb-4871-9a7b-3593932b8a08,U//PR-EXO-ELSETS,22836,2025-08-08T23:34:47.679054Z,1.002813744503534,22836,False,0.0003285652737588461,14.15780742493054,349.4496163261721,296.7858330922429,97.37206117617787,0.0,0.0,0.0,42162.04595641317,1435.959576633949,42175.89894058507,42148.19297224127,22836,1 22836U 93062A   25220.98249629 +.00000000 +00000+0 +00000+0 2 99990,2 22836  14.1578 349.4496 0003285 296.7858  97.3721  1.00281374000006,2025-08-09T04:15:31.483Z,system.exo,EXO,REAL,2,OPS1,"{'NORAD_ID': 22836, 'classification': 'U', 'COSPAR_ID': '93062A', 'BC': 0.0, 'n_ddot': 0.0, 'B_star': 0.0, 'ephemeris_type': 2, 'elset_num': 9999, 'inclination': 14.1578, 'RAAN': 349.4496, 'eccentricity': 0.0003285, 'perigee': 296.7858, 'mean_anomaly': 97.3721, 'mean_motion': 1.00281374, 'rev_num': 0, 'line1': '1 22836U 93062A   25220.98249629 +.00000000 +00000+0 +00000+0 2 99990', 'line2': '2 22836  14.1578 349.4496 0003285 296.7858  97.3721  1.00281374000006', 'epoch': datetime.datetime(2025, 8, 8, 23, 34, 47, 679456)}"
3e379a03-f4d4-402b-9318-4e9d1ac00907,U//PR-EXO-ELSETS,27460,2025-08-09T09:57:23.327250Z,0.9835254684713709,27460,False,0.001141839440479987,5.269712014917931,76.28888374982061,31.49589613068249,320.3997365936372,0.0,0.0,0.0,42711.496554488,1464.120702677987,42760.26622581585,42662.72688316016,27460,1 27460U 02035A   25221.41485332 +.00000000 +00000+0 +00000+0 2 99990,2 27460   5.2697  76.2889 0011418  31.4959 320.3997  0.98352546000001,2025-08-09T12:18:30.447Z,system.exo,EXO,REAL,2,OPS1,"{'NORAD_ID': 27460, 'classification': 'U', 'COSPAR_ID': '02035A', 'BC': 0.0, 'n_ddot': 0.0, 'B_star': 0.0, 'ephemeris_type': 2, 'elset_num': 9999, 'inclination': 5.2697, 'RAAN': 76.2889, 'eccentricity': 0.0011418, 'perigee': 31.4959, 'mean_anomaly': 320.3997, 'mean_motion': 0.98352546, 'rev_num': 0, 'line1': '1 27460U 02035A   25221.41485332 +.00000000 +00000+0 +00000+0 2 99990', 'line2': '2 27460   5.2697  76.2889 0011418  31.4959 320.3997  0.98352546000001', 'epoch': datetime.datetime(2025, 8, 9, 9, 57, 23, 326848)}"
2bd2ad36-2f04-4999-bcac-e44827c8970c,U//PR-EXO-ELSETS,11669,2025-08-09T20:32:33.426231Z,1.002519140182721,11669,False,0.00240862596363064,6.814270979086104,307.8781365615502,235.2632784546678,58.90222669963424,0.0,0.0,0.0,42170.30549124645,1436.381553510831,42271.87798394691,42068.73299854599,11669,1 11669U 80004A   25221.85594243 +.00000000 +00000+0 +00000+0 2 99996,2 11669   6.8143 307.8781 0024086 235.2633  58.9022  1.00251914000004,2025-08-09T21:51:32.402Z,system.exo,EXO,REAL,2,OPS1,"{'NORAD_ID': 11669, 'classification': 'U', 'COSPAR_ID': '80004A', 'BC': 0.0, 'n_ddot': 0.0, 'B_star': 0.0, 'ephemeris_type': 2, 'elset_num': 9999, 'inclination': 6.8143, 'RAAN': 307.8781, 'eccentricity': 0.0024086, 'perigee': 235.2633, 'mean_anomaly': 58.9022, 'mean_motion': 1.00251914, 'rev_num': 0, 'line1': '1 11669U 80004A   25221.85594243 +.00000000 +00000+0 +00000+0 2 99996', 'line2': '2 11669   6.8143 307.8781 0024086 235.2633  58.9022  1.00251914000004', 'epoch': datetime.datetime(2025, 8, 9, 20, 32, 33, 425952)}"
